{"fetched_at":"2026-04-01T16:59:04Z","count":11445,"tles":[{"name":"STARLINK-36309","line1":"1 68325U 26059E   26090.66668981  .00036060  00000+0  18561-3 0  9991","line2":"2 68325  53.1595 252.7165 0000548  25.9035 199.8113 15.80856855  2570","category":"Starlink"}]}